OBJECT_NAME,OBJECT_ID,EPOCH,MEAN_MOTION,ECCENTRICITY,INCLINATION,RA_OF_ASC_NODE,ARG_OF_PERICENTER,MEAN_ANOMALY,EPHEMERIS_TYPE,CLASSIFICATION_TYPE,NORAD_CAT_ID,ELEMENT_SET_NO,REV_AT_EPOCH,BSTAR,MEAN_MOTION_DOT,MEAN_MOTION_DDOT
STARLINK-34838,2025-189W,2026-07-15T12:41:55.913568,15.34392448,.00010517,53.1596,332.6463,90.7592,269.3531,0,U,65343,999,5069,.3352855E-3,.10966E-3,0
STARLINK-35088,2025-189X,2026-07-15T19:36:30.187584,15.34409221,.00007181,53.1621,331.6055,64.1919,295.9158,0,U,65344,999,5073,.60348284E-3,.20074E-3,0
STARLINK-34831,2025-189Y,2026-07-15T18:09:27.806976,15.31716165,.00003544,53.1616,331.2292,129.0853,231.0180,0,U,65345,999,5073,.66118435E-3,.20218E-3,0
STARLINK-34873,2025-189Z,2026-07-16T04:00:01.998720,15.34378765,.0000919,53.1612,329.4653,73.5655,314.9848,0,U,65346,999,585,.98678E-3,.33088E-3,0
STARLINK-34881,2025-189AA,2026-07-15T19:29:30.179040,15.31731313,.00001226,53.1609,330.8669,189.4643,170.6356,0,U,65347,999,5073,.52468194E-3,.15968E-3,0
STARLINK-34859,2025-189AB,2026-07-15T18:54:04.804704,15.34399992,.00007328,53.1613,331.4227,106.6149,253.4935,0,U,65348,999,5072,.50442746E-3,.16705E-3,0
STARLINK-34895,2025-189AC,2026-07-15T13:00:13.508064,15.31710865,.00008148,53.1602,332.0225,56.7299,303.3781,0,U,65349,999,5065,.53581005E-3,.16304E-3,0
STARLINK-34892,2025-189AD,2026-07-15T12:40:03.607392,15.31709766,.00011013,53.1597,331.9352,89.5200,270.5927,0,U,65350,999,5064,.34180035E-3,.10259E-3,0
STARLINK-34244,2025-190A,2026-07-15T13:57:52.890624,15.34387883,.0001694,53.1599,292.2085,53.9046,306.2113,0,U,65351,999,4936,.23342E-3,.7515E-4,0
STARLINK-34716,2025-190B,2026-07-15T12:02:11.901696,15.30205010,.00010484,53.1587,294.5194,108.3378,251.7737,0,U,65352,999,4932,.23746498E-3,.6681E-4,0
STARLINK-34828,2025-190C,2026-07-15T12:58:16.270176,15.30199217,.00012756,53.1601,294.0473,77.8758,282.2385,0,U,65353,999,4933,.31266049E-3,.8912E-4,0
STARLINK-34785,2025-190D,2026-07-15T13:15:36.075168,15.34406802,.00012166,53.1578,292.7101,64.3556,295.7572,0,U,65354,999,4888,.56802507E-3,.18868E-3,0
STARLINK-34823,2025-190E,2026-07-15T14:56:38.056416,15.30201844,.00008197,53.1583,293.8497,64.8805,295.2280,0,U,65355,999,4934,.24543759E-3,.6917E-4,0
STARLINK-34680,2025-190F,2026-07-15T12:43:14.085696,15.30197293,.00010742,53.1603,294.6924,92.7149,267.3975,0,U,65356,999,4885,.28975947E-3,.8232E-4,0
STARLINK-34860,2025-190G,2026-07-16T05:17:46.626720,15.34398043,.000109,53.1579,289.7728,105.4483,254.6640,0,U,65357,999,4898,.34282E-3,.11223E-3,0
STARLINK-34782,2025-190H,2026-07-15T12:50:39.702336,15.30222477,.00003178,53.1600,294.0169,68.6850,291.4185,0,U,65358,999,4933,.83038718E-3,.24332E-3,0
STARLINK-34760,2025-190J,2026-07-15T13:07:23.515680,15.30197798,.00008556,53.1598,294.0860,68.0349,292.0743,0,U,65359,999,4886,.30058183E-3,.8553E-4,0
STARLINK-34826,2025-190K,2026-07-15T06:27:04.387392,15.34392696,.00008913,53.1600,293.7850,63.7337,296.3757,0,U,65360,999,4884,.5076695E-3,.16811E-3,0
STARLINK-34800,2025-190L,2026-07-15T12:49:09.192288,15.30198266,.00010478,53.1603,294.0048,92.9023,267.2097,0,U,65361,999,4886,.5484209E-3,.15917E-3,0
STARLINK-34817,2025-190M,2026-07-15T12:27:05.288544,15.34412253,.00013099,53.1588,292.4995,89.9070,270.2083,0,U,65362,999,4935,.36009701E-3,.11814E-3,0
STARLINK-34797,2025-190N,2026-07-15T11:56:55.981824,15.34393264,.00008481,53.1581,293.0798,69.2533,290.8560,0,U,65363,999,4934,.30935536E-3,.10088E-3,0
STARLINK-34729,2025-190P,2026-07-15T11:53:05.319744,15.30195986,.00008402,53.1593,294.4761,90.9381,269.1716,0,U,65364,999,4974,.19045955E-3,.5285E-4,0
STARLINK-34710,2025-190Q,2026-07-16T04:00:01.998720,15.34098006,.0003496,53.1595,291.7153,187.2134,92.8132,0,U,65365,999,565,.30353E-2,.102608E-2,0
STARLINK-34943,2025-190R,2026-07-15T11:59:57.782112,15.34389291,.00009563,53.1597,293.0915,79.6559,280.4552,0,U,65366,999,4887,.56672627E-3,.18813E-3,0
STARLINK-34946,2025-190S,2026-07-15T14:55:25.982400,15.34398295,.00009829,53.1585,292.4259,81.1662,278.9452,0,U,65367,999,4936,.24004644E-3,.7742E-4,0
STARLINK-34259,2025-190T,2026-07-15T17:53:56.097024,15.34406755,.00011416,53.1585,291.7826,77.4403,282.6727,0,U,65368,999,4938,.51447609E-3,.17049E-3,0
STARLINK-34913,2025-190U,2026-07-16T05:26:51.661248,15.34400042,.0001153,53.1586,289.8064,106.2821,253.8308,0,U,65369,999,4945,.29414E-3,.9574E-4,0
STARLINK-34870,2025-190V,2026-07-15T15:02:41.997408,15.30218812,.00008542,53.1581,293.8755,75.8127,284.2969,0,U,65370,999,4887,.58680112E-3,.1707E-3,0
STARLINK-34869,2025-190W,2026-07-15T15:05:45.386592,15.30196372,.00008765,53.1585,293.8850,65.3398,294.7694,0,U,65371,999,4934,.23051604E-3,.6473E-4,0
STARLINK-34903,2025-190X,2026-07-15T13:13:27.936192,15.30181582,.00013015,53.1595,294.1057,88.5372,271.5778,0,U,65372,999,4933,.1664892E-3,.4572E-4,0
